{
  "type": "FeatureCollection",
  "features": [
    {
      "type": "Feature",
      "properties": {
        "norad_id": 39766,
        "name": "ALOS-2",
        "group": "resource",
        "lat": 60.01663860329497,
        "lon": 64.89981026793005,
        "alt_km": 624.3370080809991,
        "timestamp": "2025-12-09T23:33:23.506257+00:00",
        "meta_object_name": "ALOS-2",
        "meta_object_id": "2014-029A",
        "meta_epoch": "2025-12-09T13:32:33.770400",
        "meta_mean_motion": 14.79464767,
        "meta_eccentricity": 0.0001523,
        "meta_inclination": 97.9228,
        "meta_ra_of_asc_node": 78.4559,
        "meta_arg_of_pericenter": 99.7779,
        "meta_mean_anomaly": 260.3605,
        "meta_ephemeris_type": 0,
        "meta_classification_type": "U",
        "meta_norad_cat_id": 39766,
        "meta_element_set_no": 999,
        "meta_rev_at_epoch": 62354,
        "meta_bstar": 0.00077734142,
        "meta_mean_motion_dot": 5.758e-05,
        "meta_mean_motion_ddot": 0,
        "tle_line1": "1 39766U 14029A   25343.56427975  .00005758  00000+0  77734-3 0  9994",
        "tle_line2": "2 39766  97.9228  78.4559 0001523  99.7779 260.3605 14.79464767623544"
      },
      "geometry": {
        "type": "Point",
        "coordinates": [
          64.89981026793005,
          60.01663860329497
        ]
      }
    },
    {
      "type": "Feature",
      "properties": {
        "norad_id": 40010,
        "name": "KAZEOSAT 2",
        "group": "resource",
        "lat": -81.04538810456991,
        "lon": -114.24120659121974,
        "alt_km": 617.6421458993327,
        "timestamp": "2025-12-09T23:33:23.506267+00:00",
        "meta_object_name": "KAZEOSAT 2",
        "meta_object_id": "2014-033A",
        "meta_epoch": "2025-12-09T14:14:16.050912",
        "meta_mean_motion": 14.85159412,
        "meta_eccentricity": 0.00075352,
        "meta_inclination": 97.55,
        "meta_ra_of_asc_node": 188.0698,
        "meta_arg_of_pericenter": 218.2286,
        "meta_mean_anomaly": 141.8396,
        "meta_ephemeris_type": 0,
        "meta_classification_type": "U",
        "meta_norad_cat_id": 40010,
        "meta_element_set_no": 999,
        "meta_rev_at_epoch": 62081,
        "meta_bstar": 0.0001546204,
        "meta_mean_motion_dot": 1.274e-05,
        "meta_mean_motion_ddot": 0,
        "tle_line1": "1 40010U 14033A   25343.59324133  .00001274  00000+0  15462-3 0  9997",
        "tle_line2": "2 40010  97.5500 188.0698 0007535 218.2286 141.8396 14.85159412620811"
      },
      "geometry": {
        "type": "Point",
        "coordinates": [
          -114.24120659121974,
          -81.04538810456991
        ]
      }
    },
    {
      "type": "Feature",
      "properties": {
        "norad_id": 40011,
        "name": "HODOYOSHI-4",
        "group": "resource",
        "lat": -20.09485788964316,
        "lon": 175.77907008802214,
        "alt_km": 621.356044755802,
        "timestamp": "2025-12-09T23:33:23.506277+00:00",
        "meta_object_name": "HODOYOSHI-4",
        "meta_object_id": "2014-033B",
        "meta_epoch": "2025-12-09T13:57:39.145248",
        "meta_mean_motion": 14.87462213,
        "meta_eccentricity": 0.00230141,
        "meta_inclination": 97.5412,
        "meta_ra_of_asc_node": 172.6212,
        "meta_arg_of_pericenter": 211.4456,
        "meta_mean_anomaly": 148.5387,
        "meta_ephemeris_type": 0,
        "meta_classification_type": "U",
        "meta_norad_cat_id": 40011,
        "meta_element_set_no": 999,
        "meta_rev_at_epoch": 62061,
        "meta_bstar": 0.00019879859,
        "meta_mean_motion_dot": 1.757e-05,
        "meta_mean_motion_ddot": 0,
        "tle_line1": "1 40011U 14033B   25343.58170307  .00001757  00000+0  19880-3 0  9993",
        "tle_line2": "2 40011  97.5412 172.6212 0023014 211.4456 148.5387 14.87462213620619"
      },
      "geometry": {
        "type": "Point",
        "coordinates": [
          175.77907008802214,
          -20.09485788964316
        ]
      }
    },
    {
      "type": "Feature",
      "properties": {
        "norad_id": 40013,
        "name": "DEIMOS-2",
        "group": "resource",
        "lat": 79.26157037528021,
        "lon": 175.07049236659313,
        "alt_km": 580.6997565038073,
        "timestamp": "2025-12-09T23:33:23.506288+00:00",
        "meta_object_name": "DEIMOS-2",
        "meta_object_id": "2014-033D",
        "meta_epoch": "2025-12-09T15:08:45.955680",
        "meta_mean_motion": 14.9295136,
        "meta_eccentricity": 0.00010057,
        "meta_inclination": 97.6066,
        "meta_ra_of_asc_node": 219.5339,
        "meta_arg_of_pericenter": 94.8644,
        "meta_mean_anomaly": 265.2691,
        "meta_ephemeris_type": 0,
        "meta_classification_type": "U",
        "meta_norad_cat_id": 40013,
        "meta_element_set_no": 999,
        "meta_rev_at_epoch": 60943,
        "meta_bstar": 0.00013057626,
        "meta_mean_motion_dot": 1.301e-05,
        "meta_mean_motion_ddot": 0,
        "tle_line1": "1 40013U 14033D   25343.63108745  .00001301  00000+0  13058-3 0  9994",
        "tle_line2": "2 40013  97.6066 219.5339 0001005  94.8644 265.2691 14.92951360609430"
      },
      "geometry": {
        "type": "Point",
        "coordinates": [
          175.07049236659313,
          79.26157037528021
        ]
      }
    },
    {
      "type": "Feature",
      "properties": {
        "norad_id": 40015,
        "name": "HODOYOSHI-3",
        "group": "resource",
        "lat": -67.08238268490214,
        "lon": 168.39710681757433,
        "alt_km": 603.0815914299692,
        "timestamp": "2025-12-09T23:33:23.506298+00:00",
        "meta_object_name": "HODOYOSHI-3",
        "meta_object_id": "2014-033F",
        "meta_epoch": "2025-12-09T10:55:26.573088",
        "meta_mean_motion": 14.84790415,
        "meta_eccentricity": 0.00318132,
        "meta_inclination": 97.62,
        "meta_ra_of_asc_node": 149.4332,
        "meta_arg_of_pericenter": 259.2155,
        "meta_mean_anomaly": 100.5478,
        "meta_ephemeris_type": 0,
        "meta_classification_type": "U",
        "meta_norad_cat_id": 40015,
        "meta_element_set_no": 999,
        "meta_rev_at_epoch": 61946,
        "meta_bstar": 0.00035673277,
        "meta_mean_motion_dot": 3.002e-05,
        "meta_mean_motion_ddot": 0,
        "tle_line1": "1 40015U 14033F   25343.45516867  .00003002  00000+0  35673-3 0  9991",
        "tle_line2": "2 40015  97.6200 149.4332 0031813 259.2155 100.5478 14.84790415619461"
      },
      "geometry": {
        "type": "Point",
        "coordinates": [
          168.39710681757433,
          -67.08238268490214
        ]
      }
    },
    {
      "type": "Feature",
      "properties": {
        "norad_id": 40053,
        "name": "SPOT 7",
        "group": "resource",
        "lat": -71.0821629001671,
        "lon": -158.40159565591878,
        "alt_km": 699.1656319082567,
        "timestamp": "2025-12-09T23:33:23.506308+00:00",
        "meta_object_name": "SPOT 7",
        "meta_object_id": "2014-034A",
        "meta_epoch": "2025-12-09T14:10:57.846720",
        "meta_mean_motion": 14.60728415,
        "meta_eccentricity": 0.00015518,
        "meta_inclination": 98.0905,
        "meta_ra_of_asc_node": 45.739,
        "meta_arg_of_pericenter": 89.1185,
        "meta_mean_anomaly": 271.0194,
        "meta_ephemeris_type": 0,
        "meta_classification_type": "U",
        "meta_norad_cat_id": 40053,
        "meta_element_set_no": 999,
        "meta_rev_at_epoch": 60945,
        "meta_bstar": 0.00023232321,
        "meta_mean_motion_dot": 1.087e-05,
        "meta_mean_motion_ddot": 0,
        "tle_line1": "1 40053U 14034A   25343.59094730  .00001087  00000+0  23232-3 0  9998",
        "tle_line2": "2 40053  98.0905  45.7390 0001551  89.1185 271.0194 14.60728415609453"
      },
      "geometry": {
        "type": "Point",
        "coordinates": [
          -158.40159565591878,
          -71.0821629001671
        ]
      }
    },
    {
      "type": "Feature",
      "properties": {
        "norad_id": 40072,
        "name": "SKYSAT-B",
        "group": "resource",
        "lat": -73.65270885854548,
        "lon": -42.36587940851427,
        "alt_km": 616.0464334038834,
        "timestamp": "2025-12-09T23:33:23.506319+00:00",
        "meta_object_name": "SKYSAT-B",
        "meta_object_id": "2014-037D",
        "meta_epoch": "2025-12-09T14:12:35.829504",
        "meta_mean_motion": 14.87309327,
        "meta_eccentricity": 0.00059016,
        "meta_inclination": 98.3608,
        "meta_ra_of_asc_node": 287.1318,
        "meta_arg_of_pericenter": 159.6334,
        "meta_mean_anomaly": 200.5117,
        "meta_ephemeris_type": 0,
        "meta_classification_type": "U",
        "meta_norad_cat_id": 40072,
        "meta_element_set_no": 999,
        "meta_rev_at_epoch": 61777,
        "meta_bstar": 0.00037768263,
        "meta_mean_motion_dot": 3.349e-05,
        "meta_mean_motion_ddot": 0,
        "tle_line1": "1 40072U 14037D   25343.59208136  .00003349  00000+0  37768-3 0  9991",
        "tle_line2": "2 40072  98.3608 287.1318 0005901 159.6334 200.5117 14.87309327617773"
      },
      "geometry": {
        "type": "Point",
        "coordinates": [
          -42.36587940851427,
          -73.65270885854548
        ]
      }
    }
  ]
}